ORBCOMM FM103           
1 40091U 14040F   25110.01163068  .00001273  00000+0  31062-3 0  9994
2 40091  47.0059 292.5268 0001576 357.6223   2.4655 14.58060302572670
ORBCOMM FM114           
1 41179U 15081A   25109.28117866  .00001183  00000+0  29093-3 0  9991
2 41179  47.0020 205.0548 0001086  82.7066 277.3943 14.58116502495876
ORBCOMM FM119           
1 41180U 15081B   25109.33492424  .00001108  00000+0  27514-3 0  9998
2 41180  46.9988 114.0928 0000776 207.4890 152.5955 14.58030810497131
ORBCOMM FM105           
1 41181U 15081C   25110.35574474  .00000529  00000+0  19436-3 0  9999
2 41181  46.9999 108.6103 0001100  27.9845 332.1094 14.45162680492496
ORBCOMM FM110           
1 41182U 15081D   25110.49175467  .00001656  00000+0  39373-3 0  9998
2 41182  47.0003 198.7208 0002897 259.6942 100.3617 14.57986641496109
ORBCOMM FM118           
1 41183U 15081E   25109.72244026  .00001604  00000+0  38159-3 0  9995
2 41183  47.0028 202.8096 0003463 237.7712 122.2838 14.58083709495911
ORBCOMM FM112           
1 41184U 15081F   25109.44864181  .00001119  00000+0  27788-3 0  9992
2 41184  46.9976 112.7183 0000335  68.1378 291.9543 14.57983027497096
ORBCOMM FM113           
1 41185U 15081G   25110.17918875  .00001440  00000+0  34674-3 0  9994
2 41185  46.9992 109.5839 0000254 183.4595 176.6288 14.58026922497255
